GLOBALSTAR M040         
1 25622U 99004B   24188.95508128 -.00000093  00000+0  58192-4 0  9991
2 25622  51.9931  28.2948 0001254  44.5991 103.1988 12.61976615171669
GLOBALSTAR M036         
1 25623U 99004C   24188.84529207 -.00000020  00000+0  91869-3 0  9998
2 25623  51.9976  70.5454 0011676 105.3391 355.0637 11.86569493137984
GLOBALSTAR M038         
1 25624U 99004D   24188.80601426 -.00000068  00000+0  22299-3 0  9992
2 25624  51.9993 346.2105 0002507  69.8292  78.6295 12.32502452159781
GLOBALSTAR M022         
1 25649U 99012A   24188.94269441 -.00000077  00000+0  11908-3 0  9995
2 25649  52.0020 149.4211 0002176 209.3465 185.2899 12.02484803134848
GLOBALSTAR M046         
1 25651U 99012C   24188.96518125 -.00000134  00000+0 -50107-3 0  9995
2 25651  52.0048 112.0959 0002124 298.2581 143.3230 12.09393999141894
GLOBALSTAR M037         
1 25652U 99012D   24188.68667181 -.00000062  00000+0  23288-3 0  9991
2 25652  51.9984 156.2156 0001701 135.3694  36.1047 12.62410561167636
